0 GAOFEN 11 2
1 46396U 20064A   25330.50505821  .00002535  00000-0  11026-3 0  9997
2 46396  97.4925  91.6160 0017865 314.2659  45.7111 15.23067899290679
0 SUPERVIEW NEO-2 01
1 53128U 22082A   25330.48074015  .00000340  00000-0  16704-4 0  9994
2 53128  97.3931 338.1205 0001785  84.4545 275.6896 15.24500495187325
0 CZ-2F R/B
1 66646U 25272B   25330.47076975  .00449059  75676-5  29319-3 0  9998
2 66646  41.4431 114.9009 0121080 133.7676 227.3272 16.01945612   219
0 GAOFEN 14
1 47231U 20092A   25330.46927271  .00011176  00000-0  44741-3 0  9990
2 47231  97.2496  37.6914 0001169  99.0654 261.0717 15.25222443276926
0 PNEO3
1 48268U 21034A   25330.45314757  .00000027  00000-0  10067-4 0  9994
2 48268  97.8951  43.1277 0001254  92.3558 267.7798 14.81675824247631
0 PNEO3
1 48268U 21034A   25330.45314788  .00000058  00000-0  13988-4 0  9997
2 48268  97.8949  43.1276 0001278  95.0381 265.0977 14.81673812247632
0 STARLINK-1190
1 45083U 20006AR  25330.44254796  .09431995  12492-4  29153-3 0  9997
2 45083  53.0242 302.4052 0003092 259.6747 100.3953 16.45008554322127
0 GAOFEN 11 2
1 46396U 20064A   25330.43935994  .00002531  00000-0  11011-3 0  9997
2 46396  97.4928  91.5509 0018076 314.2033  45.7717 15.23060854290664
0 COSMOS 2550
1 48865U 21056A   25330.42415747  .00000035  00000-0  68777-5 0  9990
2 48865  67.1433 353.2861 0008278 269.9435  90.0771 15.33840623247628
0 COSMOS 1892
1 18421U 87088A   25330.40924833  .00968058  61513-3  72842-3 0  9994
2 18421  82.4621  62.0654 0005662 268.4181  91.6457 16.15435180 88702
0 GAOFEN 14
1 47231U 20092A   25330.40366605  .00015177  00000-0  60626-3 0  9997
2 47231  97.2495  37.6277 0001243 103.3613 256.7764 15.25222105276911
0 OBJECT B
1 49004U 21061B   25330.38348059  .02587628  23862-5  12333-2 0  9998
2 49004  97.3165  51.6905 0007977 283.6886  76.3516 16.21372623245234
0 YAOGAN-30 R
1 45460U 20021A   25330.37743602  .00004074  00000-0  31184-3 0  9994
2 45460  34.9964   5.8674 0002673  26.2203 333.8640 15.01369077310043
0 RADARSAT 2
1 32382U 07061A   25330.33222284  .00000039  00000-0  31857-4 0  9991
2 32382  98.5804 335.1606 0001101  91.3054 268.8255 14.29981259936962
0 TIANPING 3A-01
1 61614U 24189A   25330.32185593 -.00002562  00000-0 -19675-3 0  9999
2 61614  97.5489 351.6725 0003760  69.2940 290.8687 15.00924378 60057
0 STARLINK-1190
1 45083U 20006AR  25330.32095241  .08324590  12425-4  45539-3 0  9995
2 45083  53.0243 303.0758 0003941 270.2509  89.8087 16.42263367322105
0 OBJECT A
1 64048U 25103A   25330.30299015  .00002521  00000-0  12311-3 0  9996
2 64048  97.4119  41.6594 0001714  89.3746 270.7685 15.19170865 29272
0 YAOGAN-43 03B
1 61618U 24190B   25330.30040486  .00011378  00000-0  47556-3 0  9996
2 61618  34.9886  33.7407 0005014  11.5146 348.5683 15.22817539 60910
0 SS3 R/B
1 60457U 24147D   25330.29463554  .06855926  41750-5  56446-3 0  9992
2 60457  37.3387 169.6446 0004584 295.7733  64.2588 16.38654489 72936
0 OBJECT C
1 61871U 24203C   25330.29396959  .00004229  00000-0  19132-3 0  9995
2 61871  97.4502  36.3562 0012662 344.8519  15.2335 15.21393020 57971
0 COSMOS 2591
1 65267U 25182A   25330.28999231  .00074342  37847-5  24890-3 0  9990
2 65267  96.5902 260.8422 0009708 216.8863 143.1746 15.90162607 15347
0 OBJECT AU
1 61777U 24199AU  25330.28224450  .00010855  00000-0  29632-3 0  9997
2 61777  97.3256 197.4095 0014909 299.2374  60.7379 15.37487608102921
0 OBJECT B
1 61180U 24166B   25330.28095970  .00033254  00000-0  22056-3 0  9993
2 61180  96.7029 223.6748 0004775  22.6466 337.5010 15.75418466 68798
0 HJS-6D
1 63431U 25067D   25330.28023465  .00014489  00000-0  39358-3 0  9997
2 63431  54.9928 214.5091 0009058 144.8295 215.3332 15.37834742 36791
0 PIESAT-2 10
1 62334U 24241B   25330.27604979  .00011052  00000-0  62233-3 0  9996
2 62334  97.5318 275.6618 0001607  89.8569 270.2847 15.13396559 52113
0 PIESAT-2 09
1 62333U 24241A   25330.26339527 -.00001505  00000-0 -80679-4 0  9997
2 62333  97.5179 275.4461 0001600  89.5222 270.6192 15.13455765 52108
0 SUPERVIEW NEO-1 03
1 63125U 25040A   25330.26035009 -.00000053  00000-0  60085-6 0  9990
2 63125  97.3376  84.6453 0001779 131.9214 228.2174 15.21521938 41322
0 STARLINK-5326
1 55656U 23021AE  25330.26027685  .00869537  45659-3  77552-3 0  9993
2 55656  69.9932  72.8229 0002720 268.2993  91.7913 16.12742864153603
0 YAOGAN-31 M
1 47857U 21020D   25330.25195914 -.00000040  00000-0  78968-4 0  9992
2 47857  63.4085  59.5113 0156546 359.7122   0.3789 13.45426106231150
0 YUNHAI 2-1D
1 43912U 18112D   25330.25112846  .00000217  00000-0  14860-3 0  9996
2 43912  50.0108  68.8120 0015320 352.2143   7.8533 14.28912618358566
0 IRIDE-MS2-HEO-6
1 64576U 25135BA  25330.25084993  .00003573  00000-0  34988-3 0  9990
2 64576  97.7575  82.1241 0002241 278.0242  82.0723 14.92913121 23608
0 OBJECT A
1 57004U 23085A   25330.25067038  .00016242  00000-0  66239-3 0  9992
2 57004  97.4891  74.3353 0008209  34.9527 325.2248 15.24490101135585
0 LING QIAO
1 40136U 14051A   25330.25044222  .00000076  00000-0  46383-4 0  9990
2 40136  98.7008 326.9687 0021702  49.8923 310.4157 14.30223417585990
0 STARLINK-1971
1 47572U 21009AA  25330.25004630  .00191802  00000-0  37839-2 0  9993
2 47572  53.0539 109.0733 0003196 302.8100  82.4811 15.45988247  5886
0 STARLINK-1965
1 47566U 21009U   25330.25004630  .00177064  00000-0  35764-2 0  9995
2 47566  53.0262  68.2078 0011762 183.6867 277.7413 15.45301271  5853
0 STARLINK-1964
1 47565U 21009T   25330.25004630  .00176822  00000-0  37744-2 0  9995
2 47565  53.0521 109.3418 0003688 300.8075 169.4546 15.43733346  5873
0 STARLINK-1958
1 47559U 21009M   25330.25004630  .00182175  00000-0  43680-2 0  9992
2 47559  53.0534 100.6366 0003813 320.8099 288.0778 15.40224131  5862
0 STARLINK-1955
1 47556U 21009J   25330.25004630  .00215939  00000-0  39248-2 0  9999
2 47556  53.0503 114.9880 0007180 162.5055 163.1915 15.48245689  5784
0 STARLINK-2133
1 47406U 21005BK  25330.25004630  .00480370  00000-0  59973-2 0  9999
2 47406  53.0543 121.8312 0001067  60.9354 252.6989 15.57704535  5932
0 STARLINK-2117
1 47395U 21005AY  25330.25004630  .01254052  00000-0  15439-1 0  9991
2 47395  53.0544 120.8934 0001099  90.5385 248.9182 15.57075013  5831
0 STARLINK-2086
1 47370U 21005X   25330.25004630  .00327382  00000-0  27328-2 0  9991
2 47370  53.0418  87.9595 0006376 177.7967 302.7462 15.68499664  5932
0 STARLINK-2069
1 47359U 21005L   25330.25004630  .00327266  00000-0  20347-2 0  9993
2 47359  53.0120  64.7795 0006133 343.3934  48.1225 15.75477417  5950
0 STARLINK-1922
1 46753U 20074Q   25330.25004630  .00129249  00000-0  32766-2 0  9994
2 46753  53.0539  60.3079 0006717 350.2323 148.0029 15.38751151  5811
0 STARLINK-1894
1 46744U 20074F   25330.25004630  .00148781  00000-0  32448-2 0  9993
2 46744  53.0538  59.9103 0006027 352.8344 263.0745 15.43207770  5864
0 STARLINK-1826
1 46723U 20073BF  25330.25004630  .00101146  00000-0  29110-2 0  9995
2 46723  53.0547 315.3493 0007176  55.8479 199.5618 15.34952010  5830
0 STARLINK-1820
1 46717U 20073AZ  25330.25004630  .00153335  00000-0  29438-2 0  9998
2 46717  53.0534 309.7791 0010227 356.2785 288.8574 15.46895976  5930
0 STARLINK-1810
1 46709U 20073AR  25330.25004630  .01938619  00000-0  77471-1 0  9995
2 46709  53.0555   0.0574 0001539  87.0462 341.6477 15.21251506  5793
0 STARLINK-1790
1 46691U 20073X   25330.25004630  .00102019  00000-0  22973-2 0  9999
2 46691  53.0549 339.6000 0006366  37.7455 356.6332 15.42470832  5826
0 STARLINK-1789
1 46690U 20073W   25330.25004630  .00078946  00000-0  12036-2 0  9998
2 46690  53.0526 318.6106 0012077   3.3497 225.8714 15.53727353  5900
0 STARLINK-1775
1 46681U 20073M   25330.25004630  .00085311  00000-0  18019-2 0  9999
2 46681  53.0550 353.8593 0005978  32.5093 356.5905 15.44461077  5830
0 STARLINK-1705
1 46579U 20070AZ  25330.25004630  .00243549  00000-0  23082-2 0  9997
2 46579  53.0435 230.1518 0011203  74.5409 198.5119 15.65578078  5998
0 STARLINK-1740
1 46566U 20070AL  25330.25004630  .00236282  00000-0  25621-2 0  9990
2 46566  53.0519 234.1414 0007990  40.7720 288.2925 15.62218165  5970
0 STARLINK-1700
1 46549U 20070T   25330.25004630  .00217153  00000-0  21731-2 0  9995
2 46549  53.0384 225.2725 0006530  89.0060 350.9285 15.64342443  5985
0 STARLINK-1692
1 46542U 20070L   25330.25004630  .00545207  13364-3  13278-2 0  9999
2 46542  53.0343 210.7383 0003710 143.0319 319.9862 15.95682708  5988
0 STARLINK-1769
1 46382U 20062BK  25330.25004630  .00234139  00000-0  31755-2 0  9991
2 46382  53.0472  51.1456 0007674 231.4005 151.3616 15.56325802  5956
0 STARLINK-1651
1 46366U 20062AT  25330.25004630  .00179050  00000-0  32707-2 0  9991
2 46366  53.0465  59.7135 0007674 268.1682 186.0634 15.48246142  5940
0 STARLINK-1726
1 46362U 20062AP  25330.25004630  .00160300  00000-0  29429-2 0  9992
2 46362  53.0518  48.8032 0004143 222.4000 253.8519 15.48198002  5749
0 STARLINK-1657
1 46354U 20062AF  25330.25004630  .00194068  00000-0  42589-2 0  9993
2 46354  53.0515 112.4037 0004300 275.9894 257.8465 15.42835299  5934
0 STARLINK-1575
1 46349U 20062AA  25330.25004630  .00151064  00000-0  29382-2 0  9992
2 46349  53.0411  48.4389 0007262 187.9400 298.9958 15.46553829  5940
0 STARLINK-1767
1 46345U 20062W   25330.25004630  .00259954  00000-0  32312-2 0  9992
2 46345  53.0417  89.1931 0004639 159.3979 320.2418 15.58585659  5967
0 STARLINK-1765
1 46344U 20062V   25330.25004630  .00194079  00000-0  38949-2 0  9999
2 46344  53.0486  88.2464 0004480 257.5350 263.6638 15.45475550  5846
0 STARLINK-1764
1 46343U 20062U   25330.25004630  .00181088  00000-0  46513-2 0  9990
2 46343  53.0530  94.6408 0003893 308.9885 295.5665 15.38124625  5890
